SL-16 R/B               
1 28353U 04021B   25144.44929112  .00000104  00000+0  79041-4 0  9995
2 28353  70.9997 119.4605 0003196 137.8270 222.3098 14.14551483 81930
CZ-4B R/B               
1 28415U 04035C   25144.51486316  .00004994  00000+0  20651-3 0  9994
2 28415  97.3808 177.7944 0034162 270.0527  89.6795 15.23898512135800
CZ-2C R/B               
1 28480U 04046B   25144.72206884  .00000136  00000+0  66662-4 0  9998
2 28480  98.1942  72.7812 0138531 289.6278  68.9996 14.26826704 67298
ARIANE 5 R/B            
1 28499U 04049H   25144.87392788  .00001017  00000+0  12051-3 0  9997
2 28499  98.2315 298.2918 0084909 206.0831 153.6093 14.84462113102959
CZ-2D R/B               
1 28738U 05024B   25144.48848392  .00015590  00000+0  35536-3 0  9995
2 28738  97.3672 148.2974 0006578  24.0177 336.1376 15.42988662 94986
ALOS (DAICHI)           
1 28931U 06002A   25144.73851063  .00001324  00000+0  23600-3 0  9993
2 28931  98.0834  98.1619 0002185  98.5221 261.6232 14.68659082 31436
H-2A R/B                
1 28932U 06002B   25144.57979473  .00006366  00000+0  37301-3 0  9996
2 28932  98.2094 263.9027 0060117 140.4775 220.0860 15.10653559 50812
RESURS-DK 1             
1 29228U 06021A   25144.57865006  .00001956  00000+0  12356-3 0  9995
2 29228  69.9338 263.6821 0006401 227.3561 132.7065 15.10885733 43831
GENESIS 1               
1 29252U 06029A   25144.20345821  .00187409  19717-4  61548-3 0  9993
2 29252  64.4986  63.9585 0026250 284.3501  75.4743 15.89767106 43718
CZ-4B R/B               
1 29507U 06046C   25144.53868363  .00003709  00000+0  20716-3 0  9994
2 29507  97.5967 185.2184 0035782 184.0674 176.0271 15.13608718 16261
CZ-2C R/B               
1 31114U 07010B   25144.37282951  .00000080  00000+0  55304-4 0  9999
2 31114  98.3764 267.4665 0060034  56.3288 304.3595 14.20122710938650
COSMO-SKYMED 1          
1 31598U 07023A   25144.84175345  .00000617  00000+0  71446-4 0  9990
2 31598  97.8874 329.3116 0000127 140.9562 219.1664 14.89007721971817
GENESIS 2               
1 31789U 07028A   25144.47816399  .00077795  00000+0  50503-3 0  9998
2 31789  64.4743 115.2760 0021364 312.2988  47.6351 15.75226449990378
COSMOS 2428             
1 31792U 07029A   25144.53938059  .00000119  00000+0  89765-4 0  9997
2 31792  70.9352  90.3178 0005653 287.7495  72.3008 14.12847326923258
SL-16 R/B               
1 31793U 07029B   25144.55529372  .00000233  00000+0  14576-3 0  9998
2 31793  70.9761  60.1375 0001615 269.2529 263.5562 14.14780292924478
KORONAS-FOTON           
1 33504U 09003A   25144.71961748  .00007390  00000+0  20656-3 0  9996
2 33504  82.4344 214.4678 0013786 112.0012 248.2698 15.36404182901414
CZ-2C R/B               
1 37731U 11030B   25144.44821897  .00000877  00000+0  11985-3 0  9993
2 37731  97.8138 103.5592 0052742 210.1309 262.1384 14.80161379747295
H-2A R/B                
1 38341U 12025E   25144.84832193  .00002425  00000+0  23548-3 0  9990
2 38341  98.4367  85.1788 0046623 174.5187 185.6550 14.92905166705172
SHIJIAN-16 (SJ-16)      
1 39358U 13057A   25144.84632884  .00001549  00000+0  15788-3 0  9993
2 39358  74.9727  11.4097 0016284  95.7653 264.5392 14.91317596628502
SL-4 R/B                
1 39679U 14021B   25144.45365913  .00011251  00000+0  31156-3 0  9992
2 39679  51.6081 298.8314 0114179 135.3334 225.6914 15.31164875611858
ALOS-2                  
1 39766U 14029A   25144.85897774  .00001408  00000+0  19535-3 0  9996
2 39766  97.9229 242.5959 0001621  96.8046 263.3350 14.79472739594193
YAOGAN-29               
1 41038U 15069A   25144.83972922  .00000398  00000+0  56226-4 0  9999
2 41038  98.0353 167.1485 0001597 149.2001 210.9306 14.82618712513074
ASTRO-H (HITOMI)        
1 41337U 16012A   25144.15184931  .00002611  00000+0  15995-3 0  9997
2 41337  31.0007  61.7336 0010259 304.9863  54.9811 15.07931463508467
HXMT (HUIYAN)           
1 42758U 17034A   25144.55004143  .00003239  00000+0  18697-3 0  9999
2 42758  43.0133 179.0421 0035804 212.5745 147.2892 15.13656097438698
CZ-2C R/B               
1 43521U 18054D   25144.15723528  .00030854  00000+0  50058-3 0  9992
2 43521  35.1386  84.6124 0033833  21.7283 338.4871 15.51071867383415
SAOCOM 1A               
1 43641U 18076A   25144.81537580  .00000393  00000+0  55954-4 0  9999
2 43641  97.8890 332.1344 0001484  89.1375 271.0008 14.82154549358570
H-2A R/B                
1 43682U 18084L   25144.42535253  .00010267  00000+0  35131-3 0  9990
2 43682  98.8730 298.1336 0031689 298.2052  61.5984 15.30027870361407
SAOCOM 1B               
1 46265U 20059A   25144.84662972  .00000381  00000+0  54471-4 0  9995
2 46265  97.8889 331.2682 0001435  89.2867 270.8510 14.82154375255973
CSS (TIANHE)            
1 48274U 21035A   25144.42437104  .00014916  00000+0  16704-3 0  9998
2 48274  41.4635 164.8587 0005296 327.2725  32.7785 15.62370686232440
COSMOS 2550             
1 48865U 21056A   25144.84341260  .00002213  00000+0  73044-4 0  9998
2 48865  67.1416 194.7148 0008359 269.1840  90.8357 15.33836189219176
CZ-2C R/B               
1 52794U 22058K   25144.55737336  .00018390  00000+0  44779-3 0  9993
2 52794  50.1947 346.0778 0057519  79.4130 281.3306 15.39233167165411
GSLV R/B                
1 54149U 22138AN  25144.35309237  .00002659  00000+0  24109-3 0  9997
2 54149  87.3778 263.2438 0024644 119.2756 241.0942 14.94713135140683
XRISM                   
1 57800U 23137A   25144.81403886  .00004264  00000+0  26521-3 0  9994
2 57800  31.0029 346.4389 0008245  17.3513 342.7405 15.07907403 94186
ACS3                    
1 59588U 24077B   25144.44194259  .00007658  00000+0  75899-2 0  9994
2 59588  97.4807 143.7957 0052238  82.8041 277.9050 13.77891704 54221
